KUIPER-00027            
1 63740U 25088S   26202.03184286  .00000592  00000+0  10667-3 0  9995
2 63740  51.9005 225.9604 0000374  56.1746 303.9252 14.79938718 67366
KUIPER-00028            
1 63741U 25088T   26202.06829275  .00000239  00000+0  60338-4 0  9992
2 63741  51.8991 223.2493 0000345  53.1508 306.9486 14.79939467 67812
KUIPER-00029            
1 63742U 25088U   26201.43655785  .00000947  00000+0  15316-3 0  9997
2 63742  51.9008 224.7291 0000523 334.2831  25.8105 14.79942652 67269
KUIPER-00030            
1 63743U 25088V   26202.08320307  .00000264  00000+0  63646-4 0  9991
2 63743  51.9004 240.6937 0000264  88.9850 271.1143 14.79932429 67388
KUIPER-00031            
1 63744U 25088W   26202.25003472  .00028725  00000+0  38749-2 0  9998
2 63744  51.8989 224.9710 0000972  65.8567 202.1360 14.78894910  5107
KUIPER-00032            
1 63745U 25088X   26202.02221592  .00010567  00000+0  26112-3 0  9996
2 63745  51.8663  97.5529 0002978 224.9511 135.1236 15.41045827 70086
KUIPER-00033            
1 63746U 25088Y   26202.16832299  .00001733  00000+0  25620-3 0  9992
2 63746  51.9009 255.3407 0000298  99.4254 260.6742 14.79932517 67389
KUIPER-00034            
1 63747U 25088Z   26202.20878070  .00000254  00000+0  62313-4 0  9993
2 63747  51.9005 217.6944 0000578  60.1941 299.9079 14.79933618 67596
KUIPER-00035            
1 63748U 25088AA  26201.84416330  .00000155  00000+0  49326-4 0  9999
2 63748  51.8993 244.2801 0000261  92.0111 268.0882 14.79930467 67242
KUIPER-00037            
1 63749U 25088AB  26201.43188409  .00000308  00000+0  69411-4 0  9995
2 63749  51.9003 244.9615 0000280  77.1003 282.9991 14.79938033 67985
KUIPER-00038            
1 63750U 25088AC  26202.09669273  .00000333  00000+0  72705-4 0  9991
2 63750  51.9007 228.1885 0000364  67.5016 292.5984 14.79933697 67276
KUIPER-00039            
1 64500U 25134A   26202.13678625  .00002229  00000+0  32124-3 0  9999
2 64500  51.9025   3.0074 0000663 124.0415 236.0610 14.79937314 59836
KUIPER-00040            
1 64501U 25134B   26201.75459190  .00001753  00000+0  25883-3 0  9996
2 64501  51.8999  14.7749 0000679 121.8983 238.2045 14.79939597 59635
KUIPER-00041            
1 64502U 25134C   26202.19081885  .00002171  00000+0  31362-3 0  9992
2 64502  51.9006  15.2316 0000648 114.3082 245.7948 14.79941799 59660
KUIPER-00042            
1 64503U 25134D   26201.48715711 -.00000416  00000+0 -25566-4 0  9998
2 64503  51.9021  13.3236 0000721  46.6445 313.4578 14.79943820 59636
KUIPER-00043            
1 64504U 25134E   26201.76535609  .00001729  00000+0  25563-3 0  9998
2 64504  51.9036   4.5910 0000639 124.9420 235.1602 14.79942129 59780
