{"fetched_at":"2026-07-21T17:53:03.255Z","source":"https://celestrak.org/NORAD/elements/gp.php?GROUP=kuiper&FORMAT=JSON","constellation":"kuiper","records":[{"OBJECT_NAME":"KUIPER-00027","OBJECT_ID":"2025-088S","EPOCH":"2026-07-21T00:45:51.223104","CLASSIFICATION_TYPE":"U","MEAN_MOTION":14.79938718,"ECCENTRICITY":0.00003745,"INCLINATION":51.9005,"RA_OF_ASC_NODE":225.9604,"ARG_OF_PERICENTER":56.1746,"MEAN_ANOMALY":303.9252,"EPHEMERIS_TYPE":0,"NORAD_CAT_ID":63740,"ELEMENT_SET_NO":999,"REV_AT_EPOCH":6736,"BSTAR":0.00010666519,"MEAN_MOTION_DOT":0.00000592,"MEAN_MOTION_DDOT":0},{"OBJECT_NAME":"KUIPER-00028","OBJECT_ID":"2025-088T","EPOCH":"2026-07-21T01:38:20.493600","CLASSIFICATION_TYPE":"U","MEAN_MOTION":14.79939467,"ECCENTRICITY":0.00003459,"INCLINATION":51.8991,"RA_OF_ASC_NODE":223.2493,"ARG_OF_PERICENTER":53.1508,"MEAN_ANOMALY":306.9486,"EPHEMERIS_TYPE":0,"NORAD_CAT_ID":63741,"ELEMENT_SET_NO":999,"REV_AT_EPOCH":6781,"BSTAR":0.000060338005,"MEAN_MOTION_DOT":0.00000239,"MEAN_MOTION_DDOT":0},{"OBJECT_NAME":"KUIPER-00029","OBJECT_ID":"2025-088U","EPOCH":"2026-07-20T10:28:38.598240","CLASSIFICATION_TYPE":"U","MEAN_MOTION":14.79942652,"ECCENTRICITY":0.00005235,"INCLINATION":51.9008,"RA_OF_ASC_NODE":224.7291,"ARG_OF_PERICENTER":334.2831,"MEAN_ANOMALY":25.8105,"EPHEMERIS_TYPE":0,"NORAD_CAT_ID":63742,"ELEMENT_SET_NO":999,"REV_AT_EPOCH":6726,"BSTAR":0.00015316464,"MEAN_MOTION_DOT":0.00000947,"MEAN_MOTION_DDOT":0},{"OBJECT_NAME":"KUIPER-00030","OBJECT_ID":"2025-088V","EPOCH":"2026-07-21T01:59:48.745248","CLASSIFICATION_TYPE":"U","MEAN_MOTION":14.79932429,"ECCENTRICITY":0.0000264,"INCLINATION":51.9004,"RA_OF_ASC_NODE":240.6937,"ARG_OF_PERICENTER":88.985,"MEAN_ANOMALY":271.1143,"EPHEMERIS_TYPE":0,"NORAD_CAT_ID":63743,"ELEMENT_SET_NO":999,"REV_AT_EPOCH":6738,"BSTAR":0.000063646023,"MEAN_MOTION_DOT":0.00000264,"MEAN_MOTION_DDOT":0},{"OBJECT_NAME":"KUIPER-00031","OBJECT_ID":"2025-088W","EPOCH":"2026-07-21T06:00:02.999808","CLASSIFICATION_TYPE":"U","MEAN_MOTION":14.7889491,"ECCENTRICITY":0.00009724,"INCLINATION":51.8989,"RA_OF_ASC_NODE":224.971,"ARG_OF_PERICENTER":65.8567,"MEAN_ANOMALY":202.136,"EPHEMERIS_TYPE":0,"NORAD_CAT_ID":63744,"ELEMENT_SET_NO":999,"REV_AT_EPOCH":510,"BSTAR":0.0038748911,"MEAN_MOTION_DOT":0.00028725,"MEAN_MOTION_DDOT":0},{"OBJECT_NAME":"KUIPER-00032","OBJECT_ID":"2025-088X","EPOCH":"2026-07-21T00:31:59.455488","CLASSIFICATION_TYPE":"U","MEAN_MOTION":15.41045827,"ECCENTRICITY":0.00029789,"INCLINATION":51.8663,"RA_OF_ASC_NODE":97.5529,"ARG_OF_PERICENTER":224.9511,"MEAN_ANOMALY":135.1236,"EPHEMERIS_TYPE":0,"NORAD_CAT_ID":63745,"ELEMENT_SET_NO":999,"REV_AT_EPOCH":7008,"BSTAR":0.0002611239,"MEAN_MOTION_DOT":0.00010567,"MEAN_MOTION_DDOT":0},{"OBJECT_NAME":"KUIPER-00033","OBJECT_ID":"2025-088Y","EPOCH":"2026-07-21T04:02:23.106336","CLASSIFICATION_TYPE":"U","MEAN_MOTION":14.79932517,"ECCENTRICITY":0.00002982,"INCLINATION":51.9009,"RA_OF_ASC_NODE":255.3407,"ARG_OF_PERICENTER":99.4254,"MEAN_ANOMALY":260.6742,"EPHEMERIS_TYPE":0,"NORAD_CAT_ID":63746,"ELEMENT_SET_NO":999,"REV_AT_EPOCH":6738,"BSTAR":0.00025620174,"MEAN_MOTION_DOT":0.00001733,"MEAN_MOTION_DDOT":0},{"OBJECT_NAME":"KUIPER-00034","OBJECT_ID":"2025-088Z","EPOCH":"2026-07-21T05:00:38.652480","CLASSIFICATION_TYPE":"U","MEAN_MOTION":14.79933618,"ECCENTRICITY":0.00005785,"INCLINATION":51.9005,"RA_OF_ASC_NODE":217.6944,"ARG_OF_PERICENTER":60.1941,"MEAN_ANOMALY":299.9079,"EPHEMERIS_TYPE":0,"NORAD_CAT_ID":63747,"ELEMENT_SET_NO":999,"REV_AT_EPOCH":6759,"BSTAR":0.000062313044,"MEAN_MOTION_DOT":0.00000254,"MEAN_MOTION_DDOT":0},{"OBJECT_NAME":"KUIPER-00035","OBJECT_ID":"2025-088AA","EPOCH":"2026-07-20T20:15:35.709120","CLASSIFICATION_TYPE":"U","MEAN_MOTION":14.79930467,"ECCENTRICITY":0.0000261,"INCLINATION":51.8993,"RA_OF_ASC_NODE":244.2801,"ARG_OF_PERICENTER":92.0111,"MEAN_ANOMALY":268.0882,"EPHEMERIS_TYPE":0,"NORAD_CAT_ID":63748,"ELEMENT_SET_NO":999,"REV_AT_EPOCH":6724,"BSTAR":0.000049325781,"MEAN_MOTION_DOT":0.00000155,"MEAN_MOTION_DDOT":0},{"OBJECT_NAME":"KUIPER-00037","OBJECT_ID":"2025-088AB","EPOCH":"2026-07-20T10:21:54.785376","CLASSIFICATION_TYPE":"U","MEAN_MOTION":14.79938033,"ECCENTRICITY":0.00002805,"INCLINATION":51.9003,"RA_OF_ASC_NODE":244.9615,"ARG_OF_PERICENTER":77.1003,"MEAN_ANOMALY":282.9991,"EPHEMERIS_TYPE":0,"NORAD_CAT_ID":63749,"ELEMENT_SET_NO":999,"REV_AT_EPOCH":6798,"BSTAR":0.000069410702,"MEAN_MOTION_DOT":0.00000308,"MEAN_MOTION_DDOT":0},{"OBJECT_NAME":"KUIPER-00038","OBJECT_ID":"2025-088AC","EPOCH":"2026-07-21T02:19:14.251872","CLASSIFICATION_TYPE":"U","MEAN_MOTION":14.79933697,"ECCENTRICITY":0.00003641,"INCLINATION":51.9007,"RA_OF_ASC_NODE":228.1885,"ARG_OF_PERICENTER":67.5016,"MEAN_ANOMALY":292.5984,"EPHEMERIS_TYPE":0,"NORAD_CAT_ID":63750,"ELEMENT_SET_NO":999,"REV_AT_EPOCH":6727,"BSTAR":0.00007270497,"MEAN_MOTION_DOT":0.00000333,"MEAN_MOTION_DDOT":0},{"OBJECT_NAME":"KUIPER-00039","OBJECT_ID":"2025-134A","EPOCH":"2026-07-21T03:16:58.332000","CLASSIFICATION_TYPE":"U","MEAN_MOTION":14.79937314,"ECCENTRICITY":0.00006637,"INCLINATION":51.9025,"RA_OF_ASC_NODE":3.0074,"ARG_OF_PERICENTER":124.0415,"MEAN_ANOMALY":236.061,"EPHEMERIS_TYPE":0,"NORAD_CAT_ID":64500,"ELEMENT_SET_NO":999,"REV_AT_EPOCH":5983,"BSTAR":0.00032124125,"MEAN_MOTION_DOT":0.00002229,"MEAN_MOTION_DDOT":0},{"OBJECT_NAME":"KUIPER-00040","OBJECT_ID":"2025-134B","EPOCH":"2026-07-20T18:06:36.740160","CLASSIFICATION_TYPE":"U","MEAN_MOTION":14.79939597,"ECCENTRICITY":0.00006791,"INCLINATION":51.8999,"RA_OF_ASC_NODE":14.7749,"ARG_OF_PERICENTER":121.8983,"MEAN_ANOMALY":238.2045,"EPHEMERIS_TYPE":0,"NORAD_CAT_ID":64501,"ELEMENT_SET_NO":999,"REV_AT_EPOCH":5963,"BSTAR":0.00025883035,"MEAN_MOTION_DOT":0.00001753,"MEAN_MOTION_DDOT":0},{"OBJECT_NAME":"KUIPER-00041","OBJECT_ID":"2025-134C","EPOCH":"2026-07-21T04:34:46.748640","CLASSIFICATION_TYPE":"U","MEAN_MOTION":14.79941799,"ECCENTRICITY":0.00006488,"INCLINATION":51.9006,"RA_OF_ASC_NODE":15.2316,"ARG_OF_PERICENTER":114.3082,"MEAN_ANOMALY":245.7948,"EPHEMERIS_TYPE":0,"NORAD_CAT_ID":64502,"ELEMENT_SET_NO":999,"REV_AT_EPOCH":5966,"BSTAR":0.00031361722,"MEAN_MOTION_DOT":0.00002171,"MEAN_MOTION_DDOT":0},{"OBJECT_NAME":"KUIPER-00042","OBJECT_ID":"2025-134D","EPOCH":"2026-07-20T11:41:30.374304","CLASSIFICATION_TYPE":"U","MEAN_MOTION":14.7994382,"ECCENTRICITY":0.00007216,"INCLINATION":51.9021,"RA_OF_ASC_NODE":13.3236,"ARG_OF_PERICENTER":46.6445,"MEAN_ANOMALY":313.4578,"EPHEMERIS_TYPE":0,"NORAD_CAT_ID":64503,"ELEMENT_SET_NO":999,"REV_AT_EPOCH":5963,"BSTAR":-0.000025565697,"MEAN_MOTION_DOT":-0.00000416,"MEAN_MOTION_DDOT":0},{"OBJECT_NAME":"KUIPER-00043","OBJECT_ID":"2025-134E","EPOCH":"2026-07-20T18:22:06.766176","CLASSIFICATION_TYPE":"U","MEAN_MOTION":14.79942129,"ECCENTRICITY":0.00006396,"INCLINATION":51.9036,"RA_OF_ASC_NODE":4.591,"ARG_OF_PERICENTER":124.942,"MEAN_ANOMALY":235.1602,"EPHEMERIS_TYPE":0,"NORAD_CAT_ID":64504,"ELEMENT_SET_NO":999,"REV_AT_EPOCH":5978,"BSTAR":0.00025562803,"MEAN_MOTION_DOT":0.00001729,"MEAN_MOTION_DDOT":0}]}
